GPS BIIR-2  (PRN 13)    
1 24876U 97035A   22141.43899102  .00000062  00000+0  00000+0 0  9993
2 24876  55.5066 156.7271 0057349  51.1934 309.3502  2.00563315182116
GPS BIIR-4  (PRN 20)    
1 26360U 00025A   22141.80872219 -.00000028  00000+0  00000+0 0  9990
2 26360  54.0381  79.9664 0047999 184.0068 170.9563  2.00574384161435
GPS BIIR-6  (PRN 22)    
1 26605U 00071A   22141.82958529  .00000066  00000+0  00000+0 0  9995
2 26605  55.0901 153.7159 0135830 254.1541 246.6248  2.00561114157683
GPS BIIR-8  (PRN 16)    
1 27663U 03005A   22141.89937819 -.00000034  00000+0  00000+0 0  9992
2 27663  55.5306 274.1151 0125932  40.9987   0.3999  2.00566043141484
GPS BIIR-9  (PRN 21)    
1 27704U 03010A   22141.06490010 -.00000098  00000+0  00000+0 0  9990
2 27704  55.0143  24.4144 0245203 305.3689  71.2598  2.00554543140262
GPS BIIR-11 (PRN 19)    
1 28190U 04009A   22141.36337821 -.00000065  00000+0  00000+0 0  9996
2 28190  56.0203 335.1098 0090327 119.0971  51.6011  2.00560821133102
GPS BIIR-13 (PRN 02)    
1 28474U 04045A   22141.76209590 -.00000102  00000+0  00000+0 0  9998
2 28474  55.3420  24.5139 0206721 278.7633  89.2366  2.00564729128600
GPS BIIRM-1 (PRN 17)    
1 28874U 05038A   22140.86046640 -.00000062  00000+0  00000+0 0  9995
2 28874  56.0880 332.5631 0137179 274.4311 273.5537  2.00577967121987
GPS BIIRM-2 (PRN 31)    
1 29486U 06042A   22141.79941764 -.00000001  00000+0  00000+0 0  9998
2 29486  54.7167 210.3333 0103295  21.2019  43.3486  2.00555568114562
GPS BIIRM-3 (PRN 12)    
1 29601U 06052A   22141.65038646 -.00000031  00000+0  00000+0 0  9992
2 29601  55.5368 273.0615 0084235  73.2742 287.6382  2.00578358113574
GPS BIIRM-4 (PRN 15)    
1 32260U 07047A   22141.46905595  .00000061  00000+0  00000+0 0  9999
2 32260  53.3074 141.6617 0138461  62.1800 299.2249  2.00549644106977
GPS BIIRM-5 (PRN 29)    
1 32384U 07062A   22141.84876469 -.00000064  00000+0  00000+0 0  9996
2 32384  56.2055 333.2817 0019932 134.3265 271.3702  2.00560402105681
GPS BIIRM-6 (PRN 07)    
1 32711U 08012A   22141.38314415  .00000003  00000+0  00000+0 0  9995
2 32711  54.4761 209.2917 0162707 230.6110 128.0043  2.00564439103914
GPS BIIRM-8 (PRN 05)    
1 35752U 09043A   22141.86732330 -.00000012  00000+0  00000+0 0  9992
2 35752  55.0523  86.5975 0057961  57.5582 309.3634  2.00557600 93537
GPS BIIF-1  (PRN 25)    
1 36585U 10022A   22141.72824396 -.00000033  00000+0  00000+0 0  9998
2 36585  54.8191 268.5966 0103255  56.8186 325.9584  2.00563817 87765
GPS BIIF-2  (PRN 01)    
1 37753U 11036A   22141.57479664 -.00000098  00000+0  00000+0 0  9990
2 37753  56.5940  29.7497 0117154  51.3772 305.6566  2.00565128 79431
GPS BIIF-3  (PRN 24)    
1 38833U 12053A   22141.56315270  .00000006  00000+0  00000+0 0  9999
2 38833  53.5306 204.4515 0123016  45.9958 315.0814  2.00561423 69609
GPS BIIF-4  (PRN 27)    
1 39166U 13023A   22141.92050995 -.00000061  00000+0  00000+0 0  9999
2 39166  55.7158 328.9042 0104000  37.9985 322.7404  2.00565977 66052
GPS BIIF-5  (PRN 30)    
1 39533U 14008A   22140.92102697  .00000006  00000+0  00000+0 0  9995
2 39533  53.6253 209.9813 0059302 207.7722 151.9788  2.00552043 59832
GPS BIIF-6  (PRN 06)    
1 39741U 14026A   22141.70029838 -.00000099  00000+0  00000+0 0  9991
2 39741  56.5564  29.2705 0027418 307.6907  52.0987  2.00557827 58703
GPS BIIF-7  (PRN 09)    
1 40105U 14045A   22141.28733753  .00000063  00000+0  00000+0 0  9999
2 40105  54.6863 147.8881 0018643 109.5250 250.6947  2.00576097 56230
GPS BIIF-8  (PRN 03)    
1 40294U 14068A   22141.16496382 -.00000004  00000+0  00000+0 0  9990
2 40294  55.7962  89.0126 0039904  52.9377 307.3999  2.00569501 55366
GPS BIIF-9  (PRN 26)    
1 40534U 15013A   22141.79909510 -.00000036  00000+0  00000+0 0  9994
2 40534  53.7203 265.7995 0068560  20.6384 339.6333  2.00554063 51998
GPS BIIF-10 (PRN 08)    
1 40730U 15033A   22141.46486278 -.00000060  00000+0  00000+0 0  9996
2 40730  55.2154 327.7643 0074213   7.8475 352.2747  2.00553186 50159
GPS BIIF-11 (PRN 10)    
1 41019U 15062A   22141.51054249 -.00000004  00000+0  00000+0 0  9992
2 41019  55.7853  88.8412 0077510 218.5176 140.9035  2.00562707 47991
GPS BIIF-12 (PRN 32)    
1 41328U 16007A   22141.60328172  .00000065  00000+0  00000+0 0  9990
2 41328  54.9046 148.5410 0061540 230.4381 129.0361  2.00571841 46008
GPS BIII-1  (PRN 04)    
1 43873U 18109A   22140.55998345  .00000060  00000+0  00000+0 0  9995
2 43873  55.0843 150.9948 0018783 196.9869  25.2012  2.00569976 25219
GPS BIII-2  (PRN 18)    
1 44506U 19056A   22141.87201118 -.00000100  00000+0  00000+0 0  9998
2 44506  55.6667  30.1046 0022797 178.3990 174.5337  2.00556661 20232
GPS BIII-3  (PRN 23)    
1 45854U 20041A   22141.69597677 -.00000009  00000+0  00000+0 0  9997
2 45854  55.5037  87.3818 0021398 178.3256 343.3469  2.00559183 14205
GPS BIII-4  (PRN 14)    
1 46826U 20078A   22141.73940243 -.00000034  00000+0  00000+0 0  9991
2 46826  54.5852 271.1789 0018878 185.0561 342.3124  2.00565066 11674
GPS BIII-5  (PRN 11)    
1 48859U 21054A   22141.77389104 -.00000100  00000+0  00000+0 0  9995
2 48859  55.1719  32.1218 0003752 196.0092 179.0152  2.00574888  6929
